GPS BIIR-2  (PRN 13)    
1 24876U 97035A   26028.59927102 -.00000032  00000+0  00000+0 0  9998
2 24876  55.9168 104.0344 0097240  56.6067 304.3587  2.00563832209157
GPS BIIR-5  (PRN 22)    
1 26407U 00040A   26029.38376477  .00000095  00000+0  00000+0 0  9999
2 26407  54.8823 220.6734 0123739 302.3931 197.4848  2.00568449187163
GPS BIIR-8  (PRN 16)    
1 27663U 03005A   26029.24686279  .00000097  00000+0  00000+0 0  9999
2 27663  54.9142 220.4875 0148637  52.4157 124.7077  2.00568112168527
GPS BIIR-11 (PRN 19)    
1 28190U 04009A   26029.44900860  .00000002  00000+0  00000+0 0  9993
2 28190  54.9432 281.2931 0109561 168.3451 311.7454  2.00559032160160
GPS BIIR-13 (PRN 02)    
1 28474U 04045A   26028.44668223 -.00000088  00000+0  00000+0 0  9996
2 28474  55.2153 330.5271 0171164 311.3385 226.7989  2.00571550155620
GPS BIIRM-1 (PRN 17)    
1 28874U 05038A   26028.76372573  .00000008  00000+0  00000+0 0  9999
2 28874  54.9907 278.8047 0129952 294.7095  72.4382  2.00575209149049
GPS BIIRM-2 (PRN 31)    
1 29486U 06042A   26029.39792743  .00000000  00000+0  00000+0 0  9992
2 29486  54.6977 156.8499 0106782  52.8100 311.4868  2.00552281141610
GPS BIIRM-3 (PRN 12)    
1 29601U 06052A   26027.81277086  .00000110  00000+0  00000+0 0  9997
2 29601  54.9631 219.5685 0088415  88.1342 272.9090  2.00576586140593
GPS BIIRM-4 (PRN 15)    
1 32260U 07047A   26027.12410988 -.00000032  00000+0  00000+0 0  9995
2 32260  53.9868  85.8824 0163623  85.6863 276.2382  2.00562421133982
GPS BIIRM-5 (PRN 29)    
1 32384U 07062A   26028.19314697  .00000003  00000+0  00000+0 0  9994
2 32384  55.1422 279.7804 0031980 161.0585  20.1832  2.00551223132704
GPS BIIRM-6 (PRN 07)    
1 32711U 08012A   26028.53926125  .00000010  00000+0  00000+0 0  9995
2 32711  54.4814 155.5046 0204891 245.5943 112.2250  2.00567576130953
GPS BIIRM-8 (PRN 05)    
1 35752U 09043A   26028.51320880 -.00000044  00000+0  00000+0 0  9990
2 35752  56.1243  32.9396 0051300  81.0418 277.1771  2.00562543120550
GPS BIIF-1  (PRN 25)    
1 36585U 10022A   26027.13988341  .00000111  00000+0  00000+0 0  9997
2 36585  54.2945 214.2422 0127317  65.5910 138.1784  2.00555381114762
GPS BIIF-3  (PRN 24)    
1 38833U 12053A   26029.21545682 -.00000009  00000+0  00000+0 0  9996
2 38833  53.5634 149.2944 0176573  64.5315 297.2503  2.00565311 96656
GPS BIIF-4  (PRN 27)    
1 39166U 13023A   26029.08003049  .00000019  00000+0  00000+0 0  9995
2 39166  54.6121 274.6407 0140473  49.3262 311.9565  2.00564294 93094
GPS BIIF-5  (PRN 30)    
1 39533U 14008A   26028.57792824  .00000008  00000+0  00000+0 0  9994
2 39533  53.6362 155.0153 0080983 227.0661 132.2207  2.00550826 86887
GPS BIIF-6  (PRN 06)    
1 39741U 14026A   26028.85855758 -.00000090  00000+0  00000+0 0  9994
2 39741  56.5634 336.9441 0040017 322.3099  37.4097  2.00570989 85749
GPS BIIF-7  (PRN 09)    
1 40105U 14045A   26028.94406218 -.00000031  00000+0  00000+0 0  9999
2 40105  55.2574  94.0141 0031401 120.4917 239.8704  2.00575432 83284
GPS BIIF-8  (PRN 03)    
1 40294U 14068A   26028.82409910 -.00000039  00000+0  00000+0 0  9990
2 40294  56.8942  36.3256 0061519  68.2650 292.4281  2.00567603 82411
GPS BIIF-9  (PRN 26)    
1 40534U 15013A   26028.95436159  .00000091  00000+0  00000+0 0  9994
2 40534  53.1921 209.9344 0108412  39.4204 321.3733  2.00559578 79030
GPS BIIF-10 (PRN 08)    
1 40730U 15033A   26029.11533111  .00000022  00000+0  00000+0 0  9993
2 40730  54.0907 272.8203 0113453  28.1228 332.5576  2.00563097 77204
GPS BIIF-11 (PRN 10)    
1 41019U 15062A   26029.17452317 -.00000040  00000+0  00000+0 0  9991
2 41019  56.8677  36.1684 0111510 231.0526 127.9845  2.00566983 75043
GPS BIIF-12 (PRN 32)    
1 41328U 16007A   26028.75991240 -.00000031  00000+0  00000+0 0  9990
2 41328  55.4328  94.9892 0094316 244.9534 114.1148  2.00558260 73044
GPS BIII-1  (PRN 04)    
1 43873U 18109A   26029.42103593 -.00000030  00000+0  00000+0 0  9992
2 43873  55.5933  97.6628 0037781 197.1032 173.0392  2.00555012 52297
GPS BIII-2  (PRN 18)    
1 44506U 19056A   26027.80434897 -.00000086  00000+0  00000+0 0  9993
2 44506  55.7019 336.7244 0057806 198.6788 343.0733  2.00567138 47253
GPS BIII-3  (PRN 23)    
1 45854U 20041A   26027.88139609 -.00000041  00000+0  00000+0 0  9998
2 45854  56.5804  34.3894 0061081 204.7387 335.7561  2.00560799 41221
GPS BIII-4  (PRN 14)    
1 46826U 20078A   26029.35790078  .00000091  00000+0  00000+0 0  9999
2 46826  54.0080 216.4070 0066575 203.6032 295.2744  2.00565805 38724
GPS BIII-5  (PRN 11)    
1 48859U 21054A   26023.67748104 -.00000070  00000+0  00000+0 0  9992
2 48859  55.2399 338.2713 0024262 234.6464 305.5592  2.00551324 33851
GPS BIII-6  (PRN 28)    
1 55268U 23009A   26028.41630377  .00000010  00000+0  00000+0 0  9998
2 55268  55.1087 154.0124 0004053 342.4508  62.0034  2.00551608 22443
GPS BIII-7  (PRN 01)    
1 62339U 24242A   26029.54488356 -.00000095  00000+0  00000+0 0  9992
2 62339  54.9062 339.8042 0014479 350.9211 228.1724  2.00568578  8472
GPS BIII-8  (PRN 21)    
1 64202U 25116A   26027.98141330 -.00000043  00000+0  00000+0 0  9991
2 64202  55.1407  36.7741 0007445 318.1000  39.6376  2.00554993  5050
